{
  "norad_id": 68363,
  "name": "RASSVET-3 OBJECT D",
  "history": [
    {
      "epoch": "2026-03-31T15:46:40.237824Z",
      "apogee_km": 324.47444700047254,
      "perigee_km": 288.12448150785895,
      "latitude_deg": -3.577064438843583e-05,
      "longitude_deg": 34.012396259062875,
      "height_km": 296.4740824239628,
      "semi_major_axis_km": 6684.436464254166,
      "eccentricity": 0.002719,
      "inclination_deg": 82.2971,
      "raan_deg": 99.7117,
      "arg_perigee_deg": 44.5884,
      "mean_anomaly_deg": 315.7567,
      "mean_motion_rev_day": 15.88567095
    }
  ]
}